STARLETTE               
1 07646U 75010A   17295.18082498 -.00000139  00000-0  52916-5 0  9992
2 07646  49.8254 337.1219 0205674  64.3023 297.8951 13.82303295157421
LAGEOS 1                
1 08820U 76039A   17294.90144324  .00000002  00000-0  00000+0 0  9994
2 08820 109.8152 176.8109 0044556 258.5994  86.4020  6.38664718711721
AJISAI (EGS)            
1 16908U 86061A   17295.56813610 -.00000085  00000-0  90197-4 0  9993
2 16908  50.0070 142.8674 0011592  58.7245 337.3501 12.44486812 87309
LAGEOS 2                
1 22195U 92070B   17295.09703913 -.00000009  00000-0  00000+0 0  9992
2 22195  52.6478 103.8187 0137453 245.8963 237.4932  6.47294224591040
STELLA                  
1 22824U 93061B   17294.94803757 -.00000037  00000-0  34144-5 0  9995
2 22824  98.8348 252.9639 0007141  45.3114  28.2059 14.27370371253930
GRACE-1                 
1 27391U 02012A   17294.70428832  .00029921  00000-0  11294-3 0  9997
2 27391  88.9803 302.1577 0005183 153.7712 323.0454 15.87576370877460
GRACE-2                 
1 27392U 02012B   17295.12169325  .00092888  19326-5  33498-3 0  9992
2 27392  88.9809 302.2545 0005924 149.9420 210.2203 15.88543717877525
LARES                   
1 38077U 12006A   17295.49381424 -.00000022  00000-0  10000-3 0  9992
2 38077  69.4891 289.2819 0008397 161.2413 198.8926 12.54931051260741
